[
    {
        "Altitude(m)": 717643.2490428538,
        "Argument of Periapsis(deg)": 0.0,
        "Eccentricity": 0.0,
        "Inclination(deg)": 45.0,
        "Latitude(deg)": -44.57612113061287,
        "Longitude(deg)": -78.49776866776713,
        "Mean Anomaly(deg)": -81.81820000000002,
        "RAAN(deg)": 100.0,
        "Satellite Name": "Constellation 1 457",
        "Satellite Number": 457,
        "Semi-Major Axis(m)": 7083131.272910544,
        "Time(s)": 0
    },
    {
        "Altitude(m)": 717639.7126152923,
        "Argument of Periapsis(deg)": 5.994800624540561e-05,
        "Eccentricity": 0.0,
        "Inclination(deg)": 45.0,
        "Latitude(deg)": -44.56756094895947,
        "Longitude(deg)": -78.41794545874697,
        "Mean Anomaly(deg)": -81.7574988597501,
        "RAAN(deg)": 99.99994341083443,
        "Satellite Name": "Constellation 1 457",
        "Satellite Number": 457,
        "Semi-Major Axis(m)": 7083131.272910544,
        "Time(s)": 1
    },
    {
        "Altitude(m)": 717636.1506737713,
        "Argument of Periapsis(deg)": 0.00011989601249081122,
        "Eccentricity": 0.0,
        "Inclination(deg)": 45.0,
        "Latitude(deg)": -44.55893911482473,
        "Longitude(deg)": -78.33814689925029,
        "Mean Anomaly(deg)": -81.69679771950025,
        "RAAN(deg)": 99.99988682166885,
        "Satellite Name": "Constellation 1 457",
        "Satellite Number": 457,
        "Semi-Major Axis(m)": 7083131.272910544,
        "Time(s)": 2
    },
    {
        "Altitude(m)": 717632.5632314215,
        "Argument of Periapsis(deg)": 0.00017984401873621686,
        "Eccentricity": 0.0,
        "Inclination(deg)": 45.0,
        "Latitude(deg)": -44.55025566449762,
        "Longitude(deg)": -78.25837315129117,
        "Mean Anomaly(deg)": -81.63609657925029,
        "RAAN(deg)": 99.9998302325033,
        "Satellite Name": "Constellation 1 457",
        "Satellite Number": 457,
        "Semi-Major Axis(m)": 7083131.272910544,
        "Time(s)": 3
    },
    {
        "Altitude(m)": 717628.9503014524,
        "Argument of Periapsis(deg)": 0.00023979202498162244,
        "Eccentricity": 0.0,
        "Inclination(deg)": 45.0,
        "Latitude(deg)": -44.5415106344992,
        "Longitude(deg)": -78.17862437647274,
        "Mean Anomaly(deg)": -81.57539543900039,
        "RAAN(deg)": 99.99977364333773,
        "Satellite Name": "Constellation 1 457",
        "Satellite Number": 457,
        "Semi-Major Axis(m)": 7083131.272910544,
        "Time(s)": 4
    },
    {
        "Altitude(m)": 717625.3118971833,
        "Argument of Periapsis(deg)": 0.00029974003122702807,
        "Eccentricity": 0.0,
        "Inclination(deg)": 45.0,
        "Latitude(deg)": -44.53270406158195,
        "Longitude(deg)": -78.09890073598477,
        "Mean Anomaly(deg)": -81.51469429875053,
        "RAAN(deg)": 99.99971705417215,
        "Satellite Name": "Constellation 1 457",
        "Satellite Number": 457,
        "Semi-Major Axis(m)": 7083131.272910544,
        "Time(s)": 5
    },
    {
        "Altitude(m)": 717621.6480320084,
        "Argument of Periapsis(deg)": 0.00035968803747243373,
        "Eccentricity": 0.0,
        "Inclination(deg)": 45.0,
        "Latitude(deg)": -44.52383598272909,
        "Longitude(deg)": -78.01920239060136,
        "Mean Anomaly(deg)": -81.45399315850065,
        "RAAN(deg)": 99.99966046500658,
        "Satellite Name": "Constellation 1 457",
        "Satellite Number": 457,
        "Semi-Major Axis(m)": 7083131.272910544,
        "Time(s)": 6
    },
    {
        "Altitude(m)": 717617.9587194326,
        "Argument of Periapsis(deg)": 0.00041963604371783933,
        "Eccentricity": 0.0,
        "Inclination(deg)": 45.0,
        "Latitude(deg)": -44.51490643515373,
        "Longitude(deg)": -77.93952966877629,
        "Mean Anomaly(deg)": -81.3932920182507,
        "RAAN(deg)": 99.999603875841,
        "Satellite Name": "Constellation 1 457",
        "Satellite Number": 457,
        "Semi-Major Axis(m)": 7083131.272910544,
        "Time(s)": 7
    },
    {
        "Altitude(m)": 717614.2439730404,
        "Argument of Periapsis(deg)": 0.0004795840499632449,
        "Eccentricity": 0.0,
        "Inclination(deg)": 45.0,
        "Latitude(deg)": -44.505915456298325,
        "Longitude(deg)": -77.85988239425178,
        "Mean Anomaly(deg)": -81.33259087800079,
        "RAAN(deg)": 99.99954728667544,
        "Satellite Name": "Constellation 1 457",
        "Satellite Number": 457,
        "Semi-Major Axis(m)": 7083131.272910544,
        "Time(s)": 8
    },
    {
        "Altitude(m)": 717610.5038065233,
        "Argument of Periapsis(deg)": 0.0005395320562086505,
        "Eccentricity": 0.0,
        "Inclination(deg)": 45.0,
        "Latitude(deg)": -44.49686308383386,
        "Longitude(deg)": -77.78026089463982,
        "Mean Anomaly(deg)": -81.27188973775087,
        "RAAN(deg)": 99.99949069750986,
        "Satellite Name": "Constellation 1 457",
        "Satellite Number": 457,
        "Semi-Major Axis(m)": 7083131.272910544,
        "Time(s)": 9
    },
    {
        "Altitude(m)": 717606.738233654,
        "Argument of Periapsis(deg)": 0.0005994800624540561,
        "Eccentricity": 0.0,
        "Inclination(deg)": 45.0,
        "Latitude(deg)": -44.487749355659126,
        "Longitude(deg)": -77.70066532903114,
        "Mean Anomaly(deg)": -81.21118859750106,
        "RAAN(deg)": 99.9994341083443,
        "Satellite Name": "Constellation 1 457",
        "Satellite Number": 457,
        "Semi-Major Axis(m)": 7083131.272910544,
        "Time(s)": 10
    },
    {
        "Altitude(m)": 717602.9472683099,
        "Argument of Periapsis(deg)": 0.0006594280686994618,
        "Eccentricity": 0.0,
        "Inclination(deg)": 45.0,
        "Latitude(deg)": -44.4785743099,
        "Longitude(deg)": -77.62109585608984,
        "Mean Anomaly(deg)": -81.15048745725112,
        "RAAN(deg)": 99.99937751917874,
        "Satellite Name": "Constellation 1 457",
        "Satellite Number": 457,
        "Semi-Major Axis(m)": 7083131.272910544,
        "Time(s)": 11
    },
    {
        "Altitude(m)": 717599.130924451,
        "Argument of Periapsis(deg)": 0.0007193760749448675,
        "Eccentricity": 0.0,
        "Inclination(deg)": 45.0,
        "Latitude(deg)": -44.469337984908734,
        "Longitude(deg)": -77.5415526340522,
        "Mean Anomaly(deg)": -81.08978631700121,
        "RAAN(deg)": 99.99932093001317,
        "Satellite Name": "Constellation 1 457",
        "Satellite Number": 457,
        "Semi-Major Axis(m)": 7083131.272910544,
        "Time(s)": 12
    },
    {
        "Altitude(m)": 717595.2892161409,
        "Argument of Periapsis(deg)": 0.000779324081190273,
        "Eccentricity": 0.0,
        "Inclination(deg)": 45.0,
        "Latitude(deg)": -44.46004041926315,
        "Longitude(deg)": -77.46203582072393,
        "Mean Anomaly(deg)": -81.02908517675134,
        "RAAN(deg)": 99.99926434084759,
        "Satellite Name": "Constellation 1 457",
        "Satellite Number": 457,
        "Semi-Major Axis(m)": 7083131.272910544,
        "Time(s)": 13
    },
    {
        "Altitude(m)": 717591.4221575272,
        "Argument of Periapsis(deg)": 0.0008392720874356787,
        "Eccentricity": 0.0,
        "Inclination(deg)": 45.0,
        "Latitude(deg)": -44.45068165176604,
        "Longitude(deg)": -77.38254557347818,
        "Mean Anomaly(deg)": -80.96838403650148,
        "RAAN(deg)": 99.99920775168202,
        "Satellite Name": "Constellation 1 457",
        "Satellite Number": 457,
        "Semi-Major Axis(m)": 7083131.272910544,
        "Time(s)": 14
    },
    {
        "Altitude(m)": 717587.5297628596,
        "Argument of Periapsis(deg)": 0.0008992200936810842,
        "Eccentricity": 0.0,
        "Inclination(deg)": 45.0,
        "Latitude(deg)": -44.44126172144425,
        "Longitude(deg)": -77.30308221735089,
        "Mean Anomaly(deg)": -80.90768289625152,
        "RAAN(deg)": 99.99915116251645,
        "Satellite Name": "Constellation 1 457",
        "Satellite Number": 457,
        "Semi-Major Axis(m)": 7083131.272910544,
        "Time(s)": 15
    },
    {
        "Altitude(m)": 717583.6120464707,
        "Argument of Periapsis(deg)": 0.0009591680999264898,
        "Eccentricity": 0.0,
        "Inclination(deg)": 45.0,
        "Latitude(deg)": -44.43178066754806,
        "Longitude(deg)": -77.22364557264979,
        "Mean Anomaly(deg)": -80.84698175600161,
        "RAAN(deg)": 99.99909457335089,
        "Satellite Name": "Constellation 1 457",
        "Satellite Number": 457,
        "Semi-Major Axis(m)": 7083131.272910544,
        "Time(s)": 16
    },
    {
        "Altitude(m)": 717579.6690227943,
        "Argument of Periapsis(deg)": 0.0010191161061718953,
        "Eccentricity": 0.0,
        "Inclination(deg)": 45.0,
        "Latitude(deg)": -44.422238529550356,
        "Longitude(deg)": -77.14423596353585,
        "Mean Anomaly(deg)": -80.78628061575175,
        "RAAN(deg)": 99.99903798418532,
        "Satellite Name": "Constellation 1 457",
        "Satellite Number": 457,
        "Semi-Major Axis(m)": 7083131.272910544,
        "Time(s)": 17
    },
    {
        "Altitude(m)": 717575.7007063591,
        "Argument of Periapsis(deg)": 0.001079064112417301,
        "Eccentricity": 0.0,
        "Inclination(deg)": 45.0,
        "Latitude(deg)": -44.41263534714599,
        "Longitude(deg)": -77.06485354563205,
        "Mean Anomaly(deg)": -80.72557947550183,
        "RAAN(deg)": 99.99898139501974,
        "Satellite Name": "Constellation 1 457",
        "Satellite Number": 457,
        "Semi-Major Axis(m)": 7083131.272910544,
        "Time(s)": 18
    }
]